[{"OBJECT_NAME":"STARLINK-1183","OBJECT_ID":"2020-006AW","EPOCH":"2026-03-09T18:04:02.447040","MEAN_MOTION":15.30192923,"ECCENTRICITY":0.00012117,"INCLINATION":53.1598,"RA_OF_ASC_NODE":242.29,"ARG_OF_PERICENTER":78.0692,"MEAN_ANOMALY":282.0445,"EPHEMERIS_TYPE":0,"CLASSIFICATION_TYPE":"U","NORAD_CAT_ID":45088,"ELEMENT_SET_NO":999,"REV_AT_EPOCH":33709,"BSTAR":5.3320737e-5,"MEAN_MOTION_DOT":1.22e-5,"MEAN_MOTION_DDOT":0},{"OBJECT_NAME":"THORAD AGENA D DEB","OBJECT_ID":"1969-082CP","EPOCH":"2026-03-09T22:51:31.947840","MEAN_MOTION":15.31252047,"ECCENTRICITY":0.00108961,"INCLINATION":69.8927,"RA_OF_ASC_NODE":265.8646,"ARG_OF_PERICENTER":335.0972,"MEAN_ANOMALY":24.9676,"EPHEMERIS_TYPE":0,"CLASSIFICATION_TYPE":"U","NORAD_CAT_ID":4133,"ELEMENT_SET_NO":999,"REV_AT_EPOCH":97550,"BSTAR":0.0018489552,"MEAN_MOTION_DOT":0.00056347,"MEAN_MOTION_DDOT":0}]
